TITAN 4B CENTAUR R/B    
1 27938U 03041B   26064.63866135  .00000084  00000+0  00000+0 0  9993
2 27938  15.4541  38.4413 0030756 112.4256 247.9166  1.00850816 23904
ARIANE 5 R/B            
1 27946U 03043B   26065.85341052 -.00000031  00000+0  15559-2 0  9996
2 27946   8.0983   7.1546 7168663  27.5451 356.5171  2.23559886183325
ARIANE 5 DEB [SPELTRA]  
1 27950U 03043D   26066.01719506  .00000035  00000+0  26732-2 0  9991
2 27950   7.6689   6.0057 7143087  39.7830 114.8617  2.24984193184439
INSAT-3E                
1 27951U 03043E   26065.98864326 -.00000257  00000+0  00000+0 0  9992
2 27951   9.4755  55.0831 0016717 250.7078 295.9065  1.00810059 52770
ARIANE 5 DEB [SYLDA]    
1 27952U 03043F   26065.42609288  .00000214  00000+0  54616-2 0  9993
2 27952   7.7877 344.4744 7134550  83.5097 346.0859  2.26346932185130
BLOCK DM-SL R/B         
1 27953U 03044B   26065.69747986 -.00000070  00000+0  00000+0 0  9998
2 27953   1.0134 328.5716 6591253 280.3419  16.4186  2.14423355175634
GALAXY 13 (HORIZONS-1)  
1 27954U 03044A   26066.15183859  .00000130  00000+0  00000+0 0  9990
2 27954   1.1541  85.2510 0002192 264.6324  79.6372  1.00273807 45543
YAMAL 202               
1 28089U 03053A   26065.82787020 -.00000083  00000+0  00000+0 0  9991
2 28089   6.0843  72.1865 0005560 242.7177 311.1579  1.00272203 81671
YAMAL 201               
1 28094U 03053B   26066.02239509 -.00000010  00000+0  00000+0 0  9994
2 28094   9.3793  56.5825 0001589 222.8138 318.5792  1.00304819 83851
UFO 11 (USA 174)        
1 28117U 03057A   26065.99419838 -.00000104  00000+0  00000+0 0  9998
2 28117   8.8492  34.3145 0003480 293.1684 270.5594  1.00272295 81425
SL-12 R/B(2)            
1 28119U 03053E   26065.54135191 -.00000025  00000+0  00000+0 0  9996
2 28119  13.5949  14.1109 0220106 300.8213 274.3350  1.00035870 83692
FREGAT R/B              
1 28133U 03059B   26065.46103733  .00000144  00000+0  00000+0 0  9997
2 28133  23.6087 276.2316 5922974 343.4947   3.4545  2.01458531163363
BLOCK DM-SL R/B         
1 28138U 04001B   26065.82264989 -.00000114  00000+0  69957-3 0  9999
2 28138   0.8676  21.0591 7146202 296.9907   5.3908  2.24742780181914
SL-12 R/B(2)            
1 28139U 03060D   26065.94838142  .00000079  00000+0  00000+0 0  9994
2 28139  13.4756  14.4952 0018740 235.4156 308.1037  1.00255397 81005
USA 149 DEB             
1 28156U 00024E   26059.33610972 -.00000264  00000+0  00000+0 0  9992
2 28156  13.6374  12.2767 0185510 321.8952  36.8195  0.99755381 23579
USA 176 (DSP 22)        
1 28158U 04004A   26065.91904146 -.00000161  00000+0  00000+0 0  9992
2 28158  11.9238  26.8155 0002453 279.2199  93.0257  1.00272683 31919
IUS R/B(2)              
1 28161U 04004D   26065.15889838 -.00000167  00000+0  00000+0 0  9998
2 28161  12.0352  27.0221 0004266  11.4758 348.5523  0.99830335 24366
ABS-4 (MOBISAT-1)       
1 28184U 04007A   26066.09285539  .00000038  00000+0  00000+0 0  9994
2 28184   5.7832  73.2477 0005375 275.9322 270.0186  1.00272627 51311
EUTELSAT 139 WEST A     
1 28187U 04008A   26066.12166700 -.00000145  00000+0  00000+0 0  9990
2 28187   5.5696  73.2316 0001525  29.4720  74.0475  1.00832825 80338
RADUGA-1 7              
1 28194U 04010A   26065.94959477  .00000054  00000+0  00000+0 0  9999
2 28194  13.5591  21.5738 0005274 245.1646 297.9069  1.00171897 80398
SUPERBIRD-A2            
1 28218U 04011A   26066.11694884 -.00000098  00000+0  00000+0 0  9994
2 28218  13.3483  18.3573 0027795  34.7288 336.8870  0.99465211 79439
SL-12 R/B(2)            
1 28240U 04015D   26066.07892064  .00000072  00000+0  00000+0 0  9999
2 28240  13.2329  15.1301 0017666 325.5467  31.7175  1.00707569 80374
AMC-11                  
1 28252U 04017A   26066.13516814 -.00000052  00000+0  00000+0 0  9996
2 28252   0.0482  79.1275 0003234 276.4315 106.8437  1.00272906 79840
SL-12 R/B(2)            
1 28256U 04010F   26065.78228332 -.00000281  00000+0  00000+0 0  9992
2 28256  13.6016  21.7815 0026700   6.6460 351.0487  1.00107370 79635
COSMOS 1247 DEB         
1 28270U 81016L   26065.24093288 -.00000733  00000+0  00000+0 0  9992
2 28270  68.9805   6.0337 6261416 344.0215   2.8190  2.02469654184024
INTELSAT 10-02          
1 28358U 04022A   26065.29617553 -.00000016  00000+0  00000+0 0  9997
2 28358   0.0174 124.5190 0001104 267.8576 237.2435  1.00272108 79529
BREEZE-M R/B            
1 28360U 04022C   26064.36316521  .00000435  00000+0  00000+0 0  9992
2 28360  23.5701 106.3068 5996732 306.5466  11.9523  2.01478343159260
ANIK F2                 
1 28378U 04027A   26066.13516814 -.00000052  00000+0  00000+0 0  9996
2 28378   3.0213  80.8100 0003200 299.4834  82.0964  1.00272090 40240
ARIANE 5 R/B            
1 28379U 04027B   26065.87690221 -.00000115  00000+0  22402-2 0  9995
2 28379   7.2758 329.2964 7286964  33.8569 129.7955  2.07977262164406
AMC-15                  
1 28446U 04041A   26066.12961598 -.00000091  00000+0  00000+0 0  9993
2 28446   0.0496 302.3337 0002516  30.2820 133.8229  1.00272447 78285
BREEZE-M R/B            
1 28447U 04041B   26064.69187728 -.00000129  00000+0  00000+0 0  9991
2 28447  16.6263 243.5245 5168353  93.2015 357.8899  1.86976989146088
SL-12 R/B(2)            
1 28466U 04043D   26065.12128037 -.00000132  00000+0  00000+0 0  9995
2 28466  13.1170  17.2184 0007010 167.8546 185.1420  1.00162986 78075
BREEZE-M DEB [TANK]     
1 28477U 04041C   26065.50746686  .00000087  00000+0  00000+0 0  9991
2 28477  47.4043 140.5084 7022350  91.5452 342.6862  2.23818992174736
DELTA 4 DEMO SPACECRAFT 
1 28500U 04050A   26065.86632882 -.00000132  00000+0  00000+0 0  9991
2 28500  14.1220 300.8537 2783416  18.3248 137.9099  1.41309922109447
GOES 7 AKM              
1 28520U 87022F   26065.60825587 -.00000347  00000+0  00000+0 0  9999
2 28520  10.4077 319.4622 1054619  87.9528 101.0337  0.98769144 44966
NSS-10                  
1 28526U 05003A   26065.93070134 -.00000253  00000+0  00000+0 0  9996
2 28526   6.1937  71.6889 0003232 270.2097 120.3507  1.00272074 52139
DELTA 4 R/B             
1 28546U 04050B   26065.51249252 -.00000138  00000+0  00000+0 0  9994
2 28546  15.9694 321.0100 2592061 337.8997 122.8948  1.37843128106681
ARIANE 1 DEB            
1 28556U 79104V   26065.36912742 -.00000524  00000+0 -16816-1 0  9995
2 28556  16.0134 279.4118 7326525   3.9683 154.6061  1.95726440 93344
ARIANE 1 DEB            
1 28557U 79104W   26054.36139245 -.00000067  00000+0 -17631-2 0  9992
2 28557  19.8192  34.9291 7391847 172.1488 357.5463  1.97528543 29410
ARIANE 2 DEB            
1 28563U 88098L   26066.02274176  .00000339  00000+0  39150-1 0  9999
2 28563   3.2023 131.1599 7224363 276.4281 231.0582  2.07212937173108
BLOCK DM-SL R/B         
1 28627U 05008B   26065.80667201 -.00000107  00000+0  00000+0 0  9994
2 28627   0.5694  34.1494 6546294 187.7925  63.0944  2.13876137164253
INMARSAT 4-F1           
1 28628U 05009A   26065.75948987  .00000031  00000+0  00000+0 0  9998
2 28628   5.0305  42.7326 0002864 330.9087 242.3633  1.00272777 76644
SL-12 R/B(2)            
1 28634U 05010F   26065.99975328  .00000013  00000+0  00000+0 0  9992
2 28634  13.0168  19.1630 0023296 266.5760 301.7637  1.00213638 76675
BREEZE-M R/B            
1 28656U 04008C   26065.60282993 -.00000242  00000+0  00000+0 0  9994
2 28656  13.1317 293.4642 6095644 353.1991   1.4366  1.97327199152231
DIRECTV 8               
1 28659U 05019A   26066.14072602 -.00000001  00000+0  00000+0 0  9997
2 28659   0.0175 111.4625 0003339 251.1599  93.8261  1.00272291 76045
BREEZE-M R/B            
1 28660U 05019B   26065.66271517 -.00000120  00000+0  00000+0 0  9993
2 28660   9.5572 127.3245 3296421  25.7964  22.6966  1.54369671116962
GALAXY 28 (G-28)        
1 28702U 05022A   26066.13540979 -.00000202  00000+0  00000+0 0  9999
2 28702   3.0352  80.2124 0002291 269.0232 197.2658  1.00271399 50958
SL-12 R/B(2)            
1 28704U 05023H   26066.07336435  .00000074  00000+0  00000+0 0  9991
2 28704  12.7976  19.6074 0012913 324.3702 211.1479  1.00805085 76172
THAICOM 4               
1 28786U 05028A   26065.52249772 -.00000366  00000+0  00000+0 0  9997
2 28786   0.0297 257.2904 0002064 108.4566 106.0748  1.00270869 51221
ARIANE 5 R/B            
1 28787U 05028B   26066.08062363 -.00000056  00000+0  11865-2 0  9999
2 28787   6.8583 262.8758 7164846  72.8443 349.2111  2.26684871170324
ANIK F1R                
1 28868U 05036A   26065.56032899 -.00000078  00000+0  00000+0 0  9991
2 28868   4.0502  77.8643 0003088 305.7259 235.1157  1.00272466 45427
SYRACUSE 3A             
1 28885U 05041B   26066.08990873  .00000129  00000+0  00000+0 0  9995
2 28885   4.3820  77.1051 0003638 273.0843 253.1692  1.00272764 74725
ARIANE 5 R/B            
1 28886U 05041C   26065.78748334 -.00000158  00000+0  22529-3 0  9992
2 28886   7.7941 240.8894 7179721 295.9869 311.3041  2.24429746167152
INMARSAT 4-F2           
1 28899U 05044A   26065.82490330 -.00000262  00000+0  00000+0 0  9996
2 28899   4.9606  43.8039 0002732 325.0478 236.1486  1.00271641 74499
METEOSAT-9 (MSG-2)      
1 28912U 05049B   26066.08982205  .00000123  00000+0  00000+0 0  9998
2 28912   9.1309  55.1553 0001569 224.3730 323.3977  1.00278827  5972
ARIANE 5 R/B            
1 28913U 05049C   26065.91982145 -.00000037  00000+0  40572-3 0  9990
2 28913   4.6097 351.7452 7147996 263.0440  63.3552  2.24900380166094
ARIANE 5 DEB [SYLDA]    
1 28914U 05049D   26066.11651550 -.00000104  00000+0 -46836-3 0  9992
2 28914   4.7077  11.8164 7155725 220.1464  82.4338  2.23712311165027
EUTELSAT 174A           
1 28924U 05052A   26065.90127471  .00000007  00000+0  00000+0 0  9992
2 28924   3.9594  77.7963 0006285 272.9670 312.3032  1.00274504 51306
ECHOSTAR 10             
1 28935U 06003A   26066.13516814 -.00000058  00000+0  00000+0 0  9997
2 28935   0.0540 293.5231 0001871  20.4476 149.3287  1.00272017 73445
